{
  "norad_id": 68845,
  "name": "STARLINK-37539",
  "history": [
    {
      "epoch": "2026-05-02T10:00:03.000096Z",
      "apogee_km": 276.41448798463534,
      "perigee_km": 274.6339682399921,
      "latitude_deg": -39.95697619667824,
      "longitude_deg": -60.38843691118503,
      "height_km": 291.47726603446864,
      "semi_major_axis_km": 6653.661228112313,
      "eccentricity": 0.0001338,
      "inclination_deg": 97.2823,
      "raan_deg": 136.0703,
      "arg_perigee_deg": 92.8711,
      "mean_anomaly_deg": 127.1775,
      "mean_motion_rev_day": 15.99601249
    }
  ]
}