{"fetched_at":"2026-05-03T06:27:58Z","count":17151,"tles":[{"name":"STARLINK-37539","line1":"1 68845U 26094G   26122.41670139 -.01729701  90142-3 -35221-2 0  9999","line2":"2 68845  97.2823 136.0703 0001338  92.8711 127.1775 15.99601249  2005","category":"Starlink"}]}